IRIDIUM 126             
1 42809U 17039G   24131.55540343  .00000196  00000+0  62982-4 0  9999
2 42809  86.3935 314.4447 0002291  85.4643 274.6814 14.34218104359928
IRIDIUM 124             
1 42810U 17039H   24131.62933866  .00000781  00000+0  22606-3 0  9993
2 42810  86.4494 251.1153 0002049  93.3429 266.8006 14.43287752364403
IRIDIUM 128             
1 42811U 17039J   24131.61591007  .00000278  00000+0  92063-4 0  9996
2 42811  86.3979 345.9429 0002035  83.6200 276.5227 14.34218988359966
IRIDIUM 121             
1 42812U 17039K   24131.57442636  .00000210  00000+0  67893-4 0  9994
2 42812  86.3936 314.4594 0002110  89.4618 270.6819 14.34218014359923
IRIDIUM 133             
1 42955U 17061A   24131.57785337  .00000406  00000+0  13775-3 0  9991
2 42955  86.3979 346.0575 0002210  85.0405 275.1043 14.34219351344754
IRIDIUM 100             
1 42956U 17061B   24131.57152526  .00000610  00000+0  21081-3 0  9996
2 42956  86.3976 345.9968 0002286  85.0908 275.0548 14.34219716344751
IRIDIUM 122             
1 42957U 17061C   24131.53979757  .00000314  00000+0  10513-3 0  9995
2 42957  86.3976 346.0081 0002114  86.0134 274.1304 14.34219877344750
IRIDIUM 129             
1 42958U 17061D   24131.35585443  .00000111  00000+0  32735-4 0  9997
2 42958  86.3980 346.1441 0002187  82.6323 277.5121 14.34218940344742
